[{"OBJECT_NAME":"STARLINK-30428","OBJECT_ID":"2023-146R","EPOCH":"2026-03-09T22:05:47.616864","MEAN_MOTION":15.0346827,"ECCENTRICITY":0.00017205,"INCLINATION":43.0019,"RA_OF_ASC_NODE":311.8639,"ARG_OF_PERICENTER":186.633,"MEAN_ANOMALY":173.449,"EPHEMERIS_TYPE":0,"CLASSIFICATION_TYPE":"U","NORAD_CAT_ID":57906,"ELEMENT_SET_NO":999,"REV_AT_EPOCH":13604,"BSTAR":0.0083257401,"MEAN_MOTION_DOT":0.00117025,"MEAN_MOTION_DDOT":0},{"OBJECT_NAME":"JILIN-01 KUANFU 02B 6","OBJECT_ID":"2024-169F","EPOCH":"2026-03-09T21:43:38.712288","MEAN_MOTION":15.09238946,"ECCENTRICITY":0.00150747,"INCLINATION":97.5549,"RA_OF_ASC_NODE":159.9459,"ARG_OF_PERICENTER":324.4254,"MEAN_ANOMALY":35.5968,"EPHEMERIS_TYPE":0,"CLASSIFICATION_TYPE":"U","NORAD_CAT_ID":61194,"ELEMENT_SET_NO":999,"REV_AT_EPOCH":8086,"BSTAR":0.00036442477,"MEAN_MOTION_DOT":5.751e-5,"MEAN_MOTION_DDOT":0}]
